{"type": "FeatureCollection", "features": [ {"type": "Feature", "properties": {"norad_id": 41836, "name": "HIMAWARI-9", "group": "weather", "lat": -0.021084042422575656, "lon": -40.84662768239021, "alt_km": 35781.6146897135, "timestamp": "2025-12-27T05:29:38.836849+00:00", "meta": {"OBJECT_NAME": "HIMAWARI-9", "OBJECT_ID": "2016-064A", "EPOCH": "2025-12-26T00:44:38.656608", "MEAN_MOTION": 1.00271993, "ECCENTRICITY": 0.00010793, "INCLINATION": 0.0124, "RA_OF_ASC_NODE": 80.1849, "ARG_OF_PERICENTER": 234.8379, "MEAN_ANOMALY": 291.7052, "EPHEMERIS_TYPE": 0, "CLASSIFICATION_TYPE": "U", "NORAD_CAT_ID": 41836, "ELEMENT_SET_NO": 999, "REV_AT_EPOCH": 3347, "BSTAR": 0, "MEAN_MOTION_DOT": -2.53e-06, "MEAN_MOTION_DDOT": 0}, "tle": {"line1": "1 41836U 16064A   25360.03100297 -.00000253  00000+0  00000+0 0  9996", "line2": "2 41836   0.0124  80.1849 0001079 234.8379 291.7052  1.00271993 33479"}}, "geometry": {"type": "Point", "coordinates": [-40.84662768239021, -0.021084042422575656]}}, {"type": "Feature", "properties": {"norad_id": 41866, "name": "GOES 16", "group": "weather", "lat": -0.01904078597485934, "lon": 73.71533285995096, "alt_km": 35799.55336029118, "timestamp": "2025-12-27T05:29:38.836861+00:00", "meta": {"OBJECT_NAME": "GOES 16", "OBJECT_ID": "2016-071A", "EPOCH": "2025-12-26T15:57:36.330912", "MEAN_MOTION": 1.00271631, "ECCENTRICITY": 0.00032738, "INCLINATION": 0.0797, "RA_OF_ASC_NODE": 100.8609, "ARG_OF_PERICENTER": 167.1325, "MEAN_ANOMALY": 322.1538, "EPHEMERIS_TYPE": 0, "CLASSIFICATION_TYPE": "U", "NORAD_CAT_ID": 41866, "ELEMENT_SET_NO": 999, "REV_AT_EPOCH": 3337, "BSTAR": 0, "MEAN_MOTION_DOT": -6.9e-07, "MEAN_MOTION_DDOT": 0}, "tle": {"line1": "1 41866U 16071A   25360.66500383 -.00000069  00000+0  00000+0 0  9991", "line2": "2 41866   0.0797 100.8609 0003273 167.1325 322.1538  1.00271631 33375"}}, "geometry": {"type": "Point", "coordinates": [73.71533285995096, -0.01904078597485934]}}, {"type": "Feature", "properties": {"norad_id": 41882, "name": "FENGYUN 4A", "group": "weather", "lat": -1.2209095840590631, "lon": -58.054440229282434, "alt_km": 35784.47770117614, "timestamp": "2025-12-27T05:29:38.836874+00:00", "meta": {"OBJECT_NAME": "FENGYUN 4A", "OBJECT_ID": "2016-077A", "EPOCH": "2025-12-26T09:22:21.494784", "MEAN_MOTION": 1.00262391, "ECCENTRICITY": 0.0004534, "INCLINATION": 1.8816, "RA_OF_ASC_NODE": 82.2577, "ARG_OF_PERICENTER": 143.1389, "MEAN_ANOMALY": 133.8992, "EPHEMERIS_TYPE": 0, "CLASSIFICATION_TYPE": "U", "NORAD_CAT_ID": 41882, "ELEMENT_SET_NO": 999, "REV_AT_EPOCH": 3319, "BSTAR": 0, "MEAN_MOTION_DOT": -3.36e-06, "MEAN_MOTION_DDOT": 0}, "tle": {"line1": "1 41882U 16077A   25360.39052656 -.00000336  00000+0  00000+0 0  9997", "line2": "2 41882   1.8816  82.2577 0004534 143.1389 133.8992  1.00262391 33190"}}, "geometry": {"type": "Point", "coordinates": [-58.054440229282434, -1.2209095840590631]}}, {"type": "Feature", "properties": {"norad_id": 41884, "name": "CYGFM05", "group": "weather", "lat": -29.272383695449268, "lon": -174.20242768690684, "alt_km": 421.2394207790985, "timestamp": "2025-12-27T05:29:38.836885+00:00", "meta": {"OBJECT_NAME": "CYGFM05", "OBJECT_ID": "2016-078A", "EPOCH": "2025-12-26T23:49:30.572544", "MEAN_MOTION": 15.48184285, "ECCENTRICITY": 0.00102851, "INCLINATION": 34.96, "RA_OF_ASC_NODE": 313.9917, "ARG_OF_PERICENTER": 305.1243, "MEAN_ANOMALY": 54.8515, "EPHEMERIS_TYPE": 0, "CLASSIFICATION_TYPE": "U", "NORAD_CAT_ID": 41884, "ELEMENT_SET_NO": 999, "REV_AT_EPOCH": 50197, "BSTAR": 0.00043724724, "MEAN_MOTION_DOT": 0.00023781, "MEAN_MOTION_DDOT": 0}, "tle": {"line1": "1 41884U 16078A   25360.99271496  .00023781  00000+0  43725-3 0  9994", "line2": "2 41884  34.9600 313.9917 0010285 305.1243  54.8515 15.48184285501972"}}, "geometry": {"type": "Point", "coordinates": [-174.20242768690684, -29.272383695449268]}}, {"type": "Feature", "properties": {"norad_id": 41885, "name": "CYGFM04", "group": "weather", "lat": -34.58762337290496, "lon": -172.13462352961528, "alt_km": 413.83746996936407, "timestamp": "2025-12-27T05:29:38.836896+00:00", "meta": {"OBJECT_NAME": "CYGFM04", "OBJECT_ID": "2016-078B", "EPOCH": "2025-12-26T22:11:15.551520", "MEAN_MOTION": 15.50983578, "ECCENTRICITY": 0.00088157, "INCLINATION": 34.9345, "RA_OF_ASC_NODE": 288.7999, "ARG_OF_PERICENTER": 329.7289, "MEAN_ANOMALY": 30.2923, "EPHEMERIS_TYPE": 0, "CLASSIFICATION_TYPE": "U", "NORAD_CAT_ID": 41885, "ELEMENT_SET_NO": 999, "REV_AT_EPOCH": 50214, "BSTAR": 0.00044456338, "MEAN_MOTION_DOT": 0.000267, "MEAN_MOTION_DDOT": 0}, "tle": {"line1": "1 41885U 16078B   25360.92448555  .00026700  00000+0  44456-3 0  9996", "line2": "2 41885  34.9345 288.7999 0008815 329.7289  30.2923 15.50983578502142"}}, "geometry": {"type": "Point", "coordinates": [-172.13462352961528, -34.58762337290496]}}, {"type": "Feature", "properties": {"norad_id": 41886, "name": "CYGFM02", "group": "weather", "lat": -6.227891597621862, "lon": -84.0558848393522, "alt_km": 402.48960258091574, "timestamp": "2025-12-27T05:29:38.836906+00:00", "meta": {"OBJECT_NAME": "CYGFM02", "OBJECT_ID": "2016-078C", "EPOCH": "2025-12-26T21:49:26.477472", "MEAN_MOTION": 15.52406909, "ECCENTRICITY": 0.00103908, "INCLINATION": 34.9434, "RA_OF_ASC_NODE": 287.0388, "ARG_OF_PERICENTER": 331.5166, "MEAN_ANOMALY": 28.4988, "EPHEMERIS_TYPE": 0, "CLASSIFICATION_TYPE": "U", "NORAD_CAT_ID": 41886, "ELEMENT_SET_NO": 999, "REV_AT_EPOCH": 50227, "BSTAR": 0.00044587417, "MEAN_MOTION_DOT": 0.0002821, "MEAN_MOTION_DDOT": 0}, "tle": {"line1": "1 41886U 16078C   25360.90933423  .00028210  00000+0  44587-3 0  9991", "line2": "2 41886  34.9434 287.0388 0010390 331.5166  28.4988 15.52406909502276"}}, "geometry": {"type": "Point", "coordinates": [-84.0558848393522, -6.227891597621862]}}, {"type": "Feature", "properties": {"norad_id": 41887, "name": "CYGFM01", "group": "weather", "lat": -24.444801083207114, "lon": -85.92416977831273, "alt_km": 415.0034288634215, "timestamp": "2025-12-27T05:29:38.836917+00:00", "meta": {"OBJECT_NAME": "CYGFM01", "OBJECT_ID": "2016-078D", "EPOCH": "2025-12-26T21:57:28.245600", "MEAN_MOTION": 15.48776981, "ECCENTRICITY": 0.00101257, "INCLINATION": 34.9433, "RA_OF_ASC_NODE": 316.7493, "ARG_OF_PERICENTER": 297.0946, "MEAN_ANOMALY": 62.8743, "EPHEMERIS_TYPE": 0, "CLASSIFICATION_TYPE": "U", "NORAD_CAT_ID": 41887, "ELEMENT_SET_NO": 999, "REV_AT_EPOCH": 50190, "BSTAR": 0.00044565484, "MEAN_MOTION_DOT": 0.00024753, "MEAN_MOTION_DDOT": 0}, "tle": {"line1": "1 41887U 16078D   25360.91491025  .00024753  00000+0  44565-3 0  9994", "line2": "2 41887  34.9433 316.7493 0010125 297.0946  62.8743 15.48776981501906"}}, "geometry": {"type": "Point", "coordinates": [-85.92416977831273, -24.444801083207114]}}, {"type": "Feature", "properties": {"norad_id": 41888, "name": "CYGFM08", "group": "weather", "lat": 31.629149262634453, "lon": -0.6002502199431073, "alt_km": 412.3222891443511, "timestamp": "2025-12-27T05:29:38.836927+00:00", "meta": {"OBJECT_NAME": "CYGFM08", "OBJECT_ID": "2016-078E", "EPOCH": "2025-12-26T23:01:35.997024", "MEAN_MOTION": 15.50023245, "ECCENTRICITY": 0.00111832, "INCLINATION": 34.9458, "RA_OF_ASC_NODE": 299.2811, "ARG_OF_PERICENTER": 321.4092, "MEAN_ANOMALY": 38.583, "EPHEMERIS_TYPE": 0, "CLASSIFICATION_TYPE": "U", "NORAD_CAT_ID": 41888, "ELEMENT_SET_NO": 999, "REV_AT_EPOCH": 50214, "BSTAR": 0.00044623968, "MEAN_MOTION_DOT": 0.00025919, "MEAN_MOTION_DDOT": 0}, "tle": {"line1": "1 41888U 16078E   25360.95944441  .00025919  00000+0  44624-3 0  9995", "line2": "2 41888  34.9458 299.2811 0011183 321.4092  38.5830 15.50023245502147"}}, "geometry": {"type": "Point", "coordinates": [-0.6002502199431073, 31.629149262634453]}}, {"type": "Feature", "properties": {"norad_id": 41890, "name": "CYGFM07", "group": "weather", "lat": 34.77131309229504, "lon": 10.22990182732515, "alt_km": 410.12398144611416, "timestamp": "2025-12-27T05:29:38.836938+00:00", "meta": {"OBJECT_NAME": "CYGFM07", "OBJECT_ID": "2016-078G", "EPOCH": "2025-12-26T21:24:15.854688", "MEAN_MOTION": 15.506177, "ECCENTRICITY": 0.0009, "INCLINATION": 34.9473, "RA_OF_ASC_NODE": 288.6249, "ARG_OF_PERICENTER": 335.7371, "MEAN_ANOMALY": 24.2927, "EPHEMERIS_TYPE": 0, "CLASSIFICATION_TYPE": "U", "NORAD_CAT_ID": 41890, "ELEMENT_SET_NO": 999, "REV_AT_EPOCH": 50215, "BSTAR": 0.0004403566, "MEAN_MOTION_DOT": 0.00026102, "MEAN_MOTION_DDOT": 0}, "tle": {"line1": "1 41890U 16078G   25360.89185017  .00026102  00000+0  44036-3 0  9999", "line2": "2 41890  34.9473 288.6249 0009000 335.7371  24.2927 15.50617700502152"}}, "geometry": {"type": "Point", "coordinates": [10.22990182732515, 34.77131309229504]}}, {"type": "Feature", "properties": {"norad_id": 41891, "name": "CYGFM03", "group": "weather", "lat": -34.82361150053682, "lon": -156.7236084289425, "alt_km": 413.5044171602376, "timestamp": "2025-12-27T05:29:38.836948+00:00", "meta": {"OBJECT_NAME": "CYGFM03", "OBJECT_ID": "2016-078H", "EPOCH": "2025-12-26T22:08:11.250816", "MEAN_MOTION": 15.50511994, "ECCENTRICITY": 0.00088542, "INCLINATION": 34.9427, "RA_OF_ASC_NODE": 290.3522, "ARG_OF_PERICENTER": 322.2316, "MEAN_ANOMALY": 37.7784, "EPHEMERIS_TYPE": 0, "CLASSIFICATION_TYPE": "U", "NORAD_CAT_ID": 41891, "ELEMENT_SET_NO": 999, "REV_AT_EPOCH": 50213, "BSTAR": 0.00044359179, "MEAN_MOTION_DOT": 0.00026194, "MEAN_MOTION_DDOT": 0}, "tle": {"line1": "1 41891U 16078H   25360.92235244  .00026194  00000+0  44359-3 0  9991", "line2": "2 41891  34.9427 290.3522 0008854 322.2316  37.7784 15.50511994502138"}}, "geometry": {"type": "Point", "coordinates": [-156.7236084289425, -34.82361150053682]}}]}